ONEWEB-0252             
1 48970U 21060D   25138.88754530 -.00000057  00000+0 -18372-3 0  9993
2 48970  87.9020 307.3675 0001632  82.5273 277.6044 13.16593339189063
ONEWEB-0253             
1 48971U 21060E   25138.87646401  .00000011  00000+0 -45928-5 0  9998
2 48971  87.9020 307.3750 0001595  98.9072 261.2240 13.16593578187705
ONEWEB-0254             
1 48972U 21060F   25138.88596128  .00000004  00000+0 -21995-4 0  9999
2 48972  87.9020 307.3565 0001668 109.0889 251.0423 13.16594489188984
ONEWEB-0255             
1 48973U 21060G   25138.84796392  .00000126  00000+0  29611-3 0  9997
2 48973  87.9021 307.3978 0001693 103.7116 256.4204 13.16592751187778
ONEWEB-0256             
1 48974U 21060H   25138.87409528 -.00000028  00000+0 -10790-3 0  9994
2 48974  87.9016 307.4050 0001753  89.0238 271.1094 13.16593963187747
ONEWEB-0257             
1 48975U 21060J   25138.90654572  .00000067  00000+0  14249-3 0  9994
2 48975  87.9018 307.3611 0001567  96.5405 263.5904 13.16593685187706
